OBJECT_NAME,OBJECT_ID,EPOCH,MEAN_MOTION,ECCENTRICITY,INCLINATION,RA_OF_ASC_NODE,ARG_OF_PERICENTER,MEAN_ANOMALY,EPHEMERIS_TYPE,CLASSIFICATION_TYPE,NORAD_CAT_ID,ELEMENT_SET_NO,REV_AT_EPOCH,BSTAR,MEAN_MOTION_DOT,MEAN_MOTION_DDOT
SWAS,1998-071A,2026-03-09T12:50:12.826752,15.08888192,.0004099,69.8952,124.3662,14.3215,345.8065,0,U,25560,999,48223,.29986E-3,.4636E-4,0
STARLINK-5447,2022-175X,2026-03-09T04:43:18.672960,15.08831851,.0001268,53.2191,31.4361,93.8484,266.2653,0,U,54779,999,18005,-.33152E-4,-.815E-5,0
